[{"OBJECT_NAME":"NUSTAR","OBJECT_ID":"2012-031A","EPOCH":"2026-03-10T00:00:02.999808","MEAN_MOTION":15.07728841,"ECCENTRICITY":0.00071224,"INCLINATION":6.0266,"RA_OF_ASC_NODE":57.5732,"ARG_OF_PERICENTER":70.6924,"MEAN_ANOMALY":331.0724,"EPHEMERIS_TYPE":0,"CLASSIFICATION_TYPE":"U","NORAD_CAT_ID":38358,"ELEMENT_SET_NO":999,"REV_AT_EPOCH":130,"BSTAR":0.0011080621,"MEAN_MOTION_DOT":0.00018332,"MEAN_MOTION_DDOT":0},{"OBJECT_NAME":"STARLINK-5028","OBJECT_ID":"2022-119A","EPOCH":"2026-03-09T23:16:49.797984","MEAN_MOTION":15.08835337,"ECCENTRICITY":0.00016527,"INCLINATION":53.2195,"RA_OF_ASC_NODE":323.0922,"ARG_OF_PERICENTER":73.9693,"MEAN_ANOMALY":286.1481,"EPHEMERIS_TYPE":0,"CLASSIFICATION_TYPE":"U","NORAD_CAT_ID":53886,"ELEMENT_SET_NO":999,"REV_AT_EPOCH":19172,"BSTAR":-3.7528285e-5,"MEAN_MOTION_DOT":-8.85e-6,"MEAN_MOTION_DDOT":0}]
